ELEKTRO-L 3             
1 44903U 19095A   23087.92549644 -.00000104  00000+0  00000+0 0  9991
2 44903   0.0559  72.7172 0000483 298.9527 223.5692  1.00272360 11893
SHIJIAN-20 (SJ-20)      
1 44910U 19097A   23087.84730727  .00000148  00000+0  00000+0 0  9993
2 44910   1.8924  88.9666 0002771 261.1056 174.9228  1.00270148 11902
TJS-5                   
1 44978U 20002A   23087.94972545 -.00000350  00000+0  00000+0 0  9998
2 44978   0.2700  86.2731 0003939 169.0609  20.1769  1.00273632 11905
GSAT-30                 
1 45026U 20005A   23087.92549644 -.00000172  00000+0  00000+0 0  9996
2 45026   0.0314 108.7195 0001411 316.7698 176.7513  1.00271602 11736
EUTELSAT KONNECT        
1 45027U 20005B   23088.38729907  .00000042  00000+0  00000+0 0  9995
2 45027   0.0532  92.5115 0000331 218.5104  22.1165  1.00272995 12534
JCSAT-17                
1 45245U 20013A   23087.84980007 -.00000322  00000+0  00000+0 0  9998
2 45245   5.9018 346.7230 0003933   1.5340 279.6233  1.00272056 11435
GEO-KOMPSAT-2B          
1 45246U 20013B   23087.76299420 -.00000352  00000+0  00000+0 0  9995
2 45246   0.0436 356.6367 0001672 311.6477 280.5258  1.00271394 11488
BEIDOU-3 G2             
1 45344U 20017A   23087.92549644 -.00000147  00000+0  00000+0 0  9994
2 45344   1.9932   7.5317 0001608  39.8409 191.8663  1.00270978 11478
AEHF-6 (USA 298)        
1 45465U 20022B   23087.95573983 -.00000308  00000+0  00000+0 0  9999
2 45465   5.2830 300.7552 0049646   9.5038 357.6501  1.00272756 11199
BEIDOU-3 G3             
1 45807U 20040A   23087.80257715 -.00000362  00000+0  00000+0 0  9995
2 45807   0.8428 319.4828 0006765 332.9703 292.8644  1.00278351 10287
APSTAR 6D               
1 45863U 20045A   23088.38513822 -.00000326  00000+0  00000+0 0  9990
2 45863   0.0397  94.1435 0003352 301.0186  63.9891  1.00268557 10062
KOREASAT 116            
1 45920U 20048A   23087.95138157 -.00000370  00000+0  00000+0 0  9992
2 45920   0.0166 225.9369 0000982 122.0450 296.8054  1.00273492  9836
EXPRESS 103             
1 45985U 20053A   23088.01919578 -.00000289  00000+0  00000+0 0  9990
2 45985   0.0167 214.2890 0000763  99.3777 335.8985  1.00275054  9847
EXPRESS 80              
1 45986U 20053B   23088.25998318 -.00000143  00000+0  00000+0 0  9995
2 45986   0.0284 240.4718 0001504 298.8069 180.7053  1.00271659  9853
BSAT-4B                 
1 46112U 20056A   23087.80677517 -.00000358  00000+0  00000+0 0  9993
2 46112   0.0471 123.1611 0001755 315.3824 147.6726  1.00273379  9595
MEV-2                   
1 46113U 20056B   23087.31299361 -.00000018  00000+0  00000+0 0  9990
2 46113   0.0144 224.4363 0000840 127.4950 305.2083  1.00273120 68742
GALAXY 30 (G-30)        
1 46114U 20056C   23087.68823104  .00000030  00000+0  00000+0 0  9992
2 46114   0.0171 219.5631 0001811 148.5111 300.4954  1.00271895  9496
GAOFEN 13               
1 46610U 20071A   23088.02346685 -.00000370  00000+0  00000+0 0  9991
2 46610   0.0576  72.5929 0003307  32.2155 207.6221  1.00273421  9102
TIANTONG-1 2            
1 46916U 20082A   23087.86230167 -.00000365  00000+0  00000+0 0  9994
2 46916   3.4391 293.8034 0001692 102.6780 224.9043  1.00272845  8853
LUCAS (JDRS-1)          
1 47202U 20089A   23088.01806264 -.00000243  00000+0  00000+0 0  9990
2 47202   0.0146 135.6615 0003381 222.4426 285.3181  1.00269995  8605
SXM-7                   
1 47240U 20096A   23087.83954914 -.00000212  00000+0  00000+0 0  9991
2 47240   0.0046 128.2635 0002288  74.8567 199.8530  1.00271769  8515
CMS-01                  
1 47256U 20099A   23087.92549644 -.00000173  00000+0  00000+0 0  9997
2 47256   0.0583  94.8424 0006359 191.7559 315.6547  1.00272526  8399
TURKSAT 5A              
1 47306U 21001A   23088.07779519  .00000147  00000+0  00000+0 0  9990
2 47306   0.0258 109.1259 0000207 124.1720  11.8282  1.00272006  8198
TIANTONG-1 3            
1 47321U 21003A   23087.94449554 -.00000163  00000+0  00000+0 0  9996
2 47321   3.8118 308.5067 0003427  55.4059 243.6742  1.00270746  8174
TJS-6                   
1 47613U 21010A   23088.60912564  .00000035  00000+0  00000+0 0  9995
2 47613   0.0983  42.6855 0002108 343.1200 198.7617  1.00269469  8012
SBIRS GEO-5 (USA 315)   
1 48618U 21042A   23087.86073017  .00000109  00000+0  00000+0 0  9996
2 48618   6.8729 325.6386 0001950  25.4097 165.6876  1.00273016  6933
FENGYUN 4B              
1 48808U 21047A   23087.95478100 -.00000329  00000+0  00000+0 0  9999
2 48808   0.2318 284.3363 0003694 228.9651 149.7019  1.00275673  6770
SXM-8                   
1 48838U 21049A   23087.47987230 -.00000213  00000+0  00000+0 0  9992
2 48838   0.0177 227.2818 0001625  99.7265 306.1496  1.00273386  6825
TIANLIAN 1-05           
1 49011U 21063A   23088.29012861  .00000099  00000+0  00000+0 0  9993
2 49011   1.4495 280.4859 0002140 103.5775 283.6360  1.00273509  6282
STAR ONE D2             
1 49055U 21069A   23087.67824992 -.00000273  00000+0  00000+0 0  9999
2 49055   0.0096 187.5862 0000920 190.7232 341.6774  1.00272778  6116
EUTELSAT QUANTUM        
1 49056U 21069B   23088.22458069  .00000119  00000+0  00000+0 0  9998
2 49056   0.0162   6.8391 0001779 339.5533 328.5038  1.00269846  6132
CHINASAT 2E (ZX 2E)     
1 49062U 21071A   23087.94780781 -.00000300  00000+0  00000+0 0  9998
2 49062   0.0277 340.5900 0000510 345.9187 298.8395  1.00273565  6259
TJS-7                   
1 49115U 21077A   23087.90840933 -.00000131  00000+0  00000+0 0  9997
2 49115   0.4263 101.2703 0000614 127.2672 185.0255  1.00272171  6024
CHINASAT 9B             
1 49125U 21080A   23086.80127000 -.00000320  00000+0  00000+0 0  9993
2 49125   0.0568  98.0622 0001621 248.8846 227.8412  1.00270239  5824
SHIJIAN-21 (SJ-21)      
1 49330U 21094A   23087.89269719 -.00000186  00000+0  00000+0 0  9990
2 49330   8.9775  48.2679 0095909  21.7861 165.5394  1.00083802  5460
SES-17                  
1 49332U 21095A   23087.84321007 -.00000279  00000+0  00000+0 0  9990
2 49332   0.0153 120.6938 0001031 228.5527  73.1810  1.00269703  6045
SYRACUSE 4A             
1 49333U 21095B   23087.84146646  .00000127  00000+0  00000+0 0  9996
2 49333   0.0146 172.7079 0001534 195.5458 166.1714  1.00269952  6183
QZS-1R                  
1 49336U 21096A   23087.40049316 -.00000254  00000+0  00000+0 0  9990
2 49336  35.0304  97.3777 0750446 269.7225  98.0472  1.00285793  5225
CHINASAT 1D (ZX 1D)     
1 49505U 21114A   23088.52780088 -.00000344  00000+0  00000+0 0  9991
2 49505   0.7504 275.3641 0000638 267.0022 324.4523  1.00273126  5038
STPSAT-6                
1 49817U 21118A   23087.60206171 -.00000053  00000+0  00000+0 0  9992
2 49817   0.0090 203.3067 0000775 165.7989 281.7207  1.00271847  4769
LDPE-1                  
1 49818U 21118B   23087.83452066  .00000094  00000+0  00000+0 0  9998
2 49818   1.0860  94.5908 0003044 203.7468   3.1517  1.01181838  4814
EXPRESS AMU-7           
1 50001U 21123A   23087.08261072 -.00000250  00000+0  00000+0 0  9997
2 50001   0.0324 247.6151 0000452  68.7674  43.5973  1.00273075  4743
EXPRESS AMU-3           
1 50002U 21123B   23087.19897692 -.00000330  00000+0  00000+0 0  9992
2 50002   0.0236 227.4076 0000188 280.6783 211.8986  1.00272898  4713
TIANLIAN 2-02           
1 50005U 21124A   23087.89354966 -.00000023  00000+0  00000+0 0  9994
2 50005   1.8225 279.1173 0002656  75.3537 324.2589  1.00274446  4813
TURKSAT 5B              
1 50212U 21126A   23087.50646492  .00000138  00000+0  00000+0 0  9998
2 50212   0.0688 347.7284 0005290 348.3087  73.9124  1.00272682  4499
INMARSAT 6-F1           
1 50319U 21128A   23087.65815918 -.00000180  00000+0  00000+0 0  9993
2 50319   0.0396  90.4636 0000069  21.0798  34.9392  1.00271602  4461
SHIYAN 12 01 (SY-12 01) 
1 50321U 21129A   23087.94086675 -.00000202  00000+0  00000+0 0  9994
2 50321   0.6346 102.5491 0001048 260.1319 307.4971  1.00500571  4700
SHIYAN 12 02 (SY-12 02) 
1 50322U 21129B   23087.89354006 -.00000184  00000+0  00000+0 0  9994
2 50322   0.6347 102.5878 0001271 223.6882 270.9347  1.00049200  4706
TJS-9                   
1 50574U 21135A   23088.30109469 -.00000306  00000+0  00000+0 0  9994
2 50574   0.0305 326.0269 0005118  85.4732  20.5297  1.00274409  4672
USA 324                 
1 51280U 22006A   23082.23382741  .00000141  00000+0  00000+0 0  9995
2 51280   0.6598  94.2918 0001759 164.4369  31.2937  1.00527673  4251
USA 325                 
1 51281U 22006B   23081.35406157 -.00000376  00000+0  00000+0 0  9997
2 51281   0.0301 178.2634 0001495   2.7738 237.1912  1.00406844  4253
GOES 18                 
1 51850U 22021A   23087.25503941  .00000089  00000+0  00000+0 0  9990
2 51850   0.0448  18.5389 0000724 291.0023 190.6596  1.00271527  3982
CHINASAT 6D             
1 52255U 22038A   23087.86230167 -.00000362  00000+0  00000+0 0  9997
2 52255   0.0585 272.1436 0001889  65.6324 283.7172  1.00272715  3644
NILESAT 301             
1 52817U 22061A   23088.39285368 -.00000066  00000+0  00000+0 0  9990
2 52817   0.0583   8.1047 0006211 353.4356 319.3991  1.00271506  2953
CMS-02 (GSAT 24)        
1 52903U 22067A   23088.51838709 -.00000172  00000+0  00000+0 0  9997
2 52903   0.0258 246.1963 0005790 186.4479  23.6061  1.00273303  2826
MEASAT 3D               
1 52904U 22067B   23087.94650034 -.00000249  00000+0  00000+0 0  9992
2 52904   0.0433 347.4115 0003021 348.4638 282.4588  1.00272086  2846
SES-22                  
1 52933U 22071A   23088.54146368  .00000080  00000+0  00000+0 0  9998
2 52933   0.0180 215.1529 0002242 144.8264 246.6253  1.00274343  2775
WFOV (USA 332)          
1 52940U 22073A   23088.52562177 -.00000370  00000+0  00000+0 0  9999
2 52940   0.6759  94.9768 0000739  22.8006  17.3409  1.00268707  2578
TIANLIAN 2-03           
1 53100U 22078A   23088.36055775  .00000063  00000+0  00000+0 0  9994
2 53100   2.3714 282.2503 0003108 137.1799 267.5202  1.00277128  2766
SBIRS GEO-6 (USA 336)   
1 53355U 22092A   23087.75595810  .00000107  00000+0  00000+0 0  9992
2 53355   6.1112 311.4526 0007345 147.0681 214.4991  1.00271780  2448
